*******************************************************************************
Ephemeris / WWW_USER Thu Dec  5 18:35:10 2024 Pasadena, USA      / Horizons    
*******************************************************************************
Target body name: Titan (606)                     {source: sat441l}
Center body name: Earth (399)                     {source: DE441}
Center-site name: Mauna Kea
*******************************************************************************
Start time      : A.D. 2018-Nov-22 03:51:00.0000 UT      
Stop  time      : A.D. 2018-Nov-22 16:25:00.0000 UT      
Step-size       : 1 minutes
*******************************************************************************
Target pole/equ : IAU_TITAN                       {West-longitude positive}
Target radii    : 2575.15, 2574.78, 2574.47 km    {Equator_a, b, pole_c}       
Center geodetic : 204.5278, 19.8260847, 4.21024   {E-lon(deg),Lat(deg),Alt(km)}
Center cylindric: 204.5278, 6006.35451, 2151.0229 {E-lon(deg),Dxy(km),Dz(km)}
Center pole/equ : ITRF93                          {East-longitude positive}
Center radii    : 6378.137, 6378.137, 6356.752 km {Equator_a, b, pole_c}       
Target primary  : Saturn
Vis. interferer : MOON (R_eq= 1737.400) km        {source: DE441}
Rel. light bend : Sun                             {source: DE441}
Rel. lght bnd GM: 1.3271E+11 km^3/s^2                                          
Atmos refraction: NO (AIRLESS)
RA format       : HMS
Time format     : CAL 
Calendar mode   : Mixed Julian/Gregorian
RTS-only print  : NO       
EOP file        : eop.241205.p250303                                           
EOP coverage    : DATA-BASED 1962-JAN-20 TO 2024-DEC-05. PREDICTS-> 2025-MAR-02
Units conversion: 1 au= 149597870.700 km, c= 299792.458 km/s, 1 day= 86400.0 s 
Table cut-offs 1: Elevation (-90.0deg=NO ),Airmass (>38.000=NO), Daylight (YES)
Table cut-offs 2: Solar elongation (  0.0,180.0=NO ),Local Hour Angle( 0.0=NO )
Table cut-offs 3: RA/DEC angular rate (     0.0=NO )                           
*******************************************************************************
 Date__(UT)__HR:MN     R.A._________(ICRF)_________DEC
******************************************************
$$SOE
 2018-Nov-22 15:36 Am  18 29 09.503890 -22 44 38.00428
 2018-Nov-22 15:37 Am  18 29 09.520743 -22 44 38.00957
 2018-Nov-22 15:38 Am  18 29 09.537596 -22 44 38.01487
 2018-Nov-22 15:39 Am  18 29 09.554446 -22 44 38.02016
 2018-Nov-22 15:40 Am  18 29 09.571296 -22 44 38.02546
 2018-Nov-22 15:41 Am  18 29 09.588144 -22 44 38.03075
 2018-Nov-22 15:42 Am  18 29 09.604991 -22 44 38.03605
 2018-Nov-22 15:43 Am  18 29 09.621837 -22 44 38.04134
 2018-Nov-22 15:44 Am  18 29 09.638681 -22 44 38.04663
 2018-Nov-22 15:45 Nm  18 29 09.655524 -22 44 38.05193
 2018-Nov-22 15:46 Nm  18 29 09.672366 -22 44 38.05722
 2018-Nov-22 15:47 Nm  18 29 09.689206 -22 44 38.06252
 2018-Nov-22 15:48 Nm  18 29 09.706045 -22 44 38.06781
 2018-Nov-22 15:49 Nm  18 29 09.722883 -22 44 38.07310
 2018-Nov-22 15:50 Nm  18 29 09.739719 -22 44 38.07839
 2018-Nov-22 15:51 Nm  18 29 09.756554 -22 44 38.08369
 2018-Nov-22 15:52 Nm  18 29 09.773388 -22 44 38.08898
 2018-Nov-22 15:53 Nm  18 29 09.790220 -22 44 38.09427
 2018-Nov-22 15:54 Nm  18 29 09.807051 -22 44 38.09956
 2018-Nov-22 15:55 Nm  18 29 09.823880 -22 44 38.10485
 2018-Nov-22 15:56 Nm  18 29 09.840709 -22 44 38.11014
 2018-Nov-22 15:57 Nm  18 29 09.857536 -22 44 38.11544
 2018-Nov-22 15:58 Nm  18 29 09.874361 -22 44 38.12072
 2018-Nov-22 15:59 Nm  18 29 09.891185 -22 44 38.12601
 2018-Nov-22 16:00 Nm  18 29 09.908008 -22 44 38.13130
 2018-Nov-22 16:01 Nm  18 29 09.924829 -22 44 38.13659
 2018-Nov-22 16:02 Nm  18 29 09.941649 -22 44 38.14188
 2018-Nov-22 16:03 Nm  18 29 09.958468 -22 44 38.14717
 2018-Nov-22 16:04 Nm  18 29 09.975285 -22 44 38.15245
 2018-Nov-22 16:05 Nm  18 29 09.992101 -22 44 38.15774
 2018-Nov-22 16:06 Nm  18 29 10.008915 -22 44 38.16303
 2018-Nov-22 16:07 Nm  18 29 10.025728 -22 44 38.16831
 2018-Nov-22 16:08 Nm  18 29 10.042540 -22 44 38.17360
 2018-Nov-22 16:09 Nm  18 29 10.059350 -22 44 38.17888
 2018-Nov-22 16:10 Nm  18 29 10.076159 -22 44 38.18416
 2018-Nov-22 16:11 Nm  18 29 10.092966 -22 44 38.18944
 2018-Nov-22 16:12 Cm  18 29 10.109772 -22 44 38.19473
 2018-Nov-22 16:13 C   18 29 10.126577 -22 44 38.20001
 2018-Nov-22 16:14 C   18 29 10.143380 -22 44 38.20529
 2018-Nov-22 16:15 C   18 29 10.160182 -22 44 38.21057
 2018-Nov-22 16:16 C   18 29 10.176982 -22 44 38.21585
 2018-Nov-22 16:17 C   18 29 10.193781 -22 44 38.22112
 2018-Nov-22 16:18 C   18 29 10.210579 -22 44 38.22640
 2018-Nov-22 16:19 C   18 29 10.227375 -22 44 38.23168
 2018-Nov-22 16:20 C   18 29 10.244169 -22 44 38.23695
 2018-Nov-22 16:21 C   18 29 10.260963 -22 44 38.24223
 2018-Nov-22 16:22 C   18 29 10.277754 -22 44 38.24750
 2018-Nov-22 16:23 C   18 29 10.294545 -22 44 38.25277
 2018-Nov-22 16:24 C   18 29 10.311334 -22 44 38.25804
 2018-Nov-22 16:25 C   18 29 10.328121 -22 44 38.26331
